{"type": "FeatureCollection", "features": [ {"type": "Feature", "properties": {"norad_id": 32106, "name": "FENGYUN 1C DEB", "group": "fengyun-1c-debris", "lat": 21.165010519502612, "lon": 161.0244689047266, "alt_km": 870.9101745211383, "timestamp": "2025-12-26T19:22:39.192231+00:00", "meta": {"OBJECT_NAME": "FENGYUN 1C DEB", "OBJECT_ID": "1999-025CQY", "EPOCH": "2025-12-23T16:36:55.662624", "MEAN_MOTION": 14.27206286, "ECCENTRICITY": 0.01104757, "INCLINATION": 101.4633, "RA_OF_ASC_NODE": 332.4461, "ARG_OF_PERICENTER": 13.7084, "MEAN_ANOMALY": 346.7045, "EPHEMERIS_TYPE": 0, "CLASSIFICATION_TYPE": "U", "NORAD_CAT_ID": 32106, "ELEMENT_SET_NO": 999, "REV_AT_EPOCH": 69548, "BSTAR": 0.0041517084, "MEAN_MOTION_DOT": 0.00010773, "MEAN_MOTION_DDOT": 0}, "tle": {"line1": "1 32106U 99025CQY 25357.69231091  .00010773  00000+0  41517-2 0  9997", "line2": "2 32106 101.4633 332.4461 0110475  13.7084 346.7045 14.27206286695485"}}, "geometry": {"type": "Point", "coordinates": [161.0244689047266, 21.165010519502612]}}, {"type": "Feature", "properties": {"norad_id": 32109, "name": "FENGYUN 1C DEB", "group": "fengyun-1c-debris", "lat": -67.34333801259866, "lon": -99.45773955539642, "alt_km": 648.054556697939, "timestamp": "2025-12-26T19:22:39.192244+00:00", "meta": {"OBJECT_NAME": "FENGYUN 1C DEB", "OBJECT_ID": "1999-025CRB", "EPOCH": "2025-12-22T21:54:44.575488", "MEAN_MOTION": 14.33976388, "ECCENTRICITY": 0.0205156, "INCLINATION": 98.359, "RA_OF_ASC_NODE": 236.1509, "ARG_OF_PERICENTER": 281.9409, "MEAN_ANOMALY": 75.8843, "EPHEMERIS_TYPE": 0, "CLASSIFICATION_TYPE": "U", "NORAD_CAT_ID": 32109, "ELEMENT_SET_NO": 999, "REV_AT_EPOCH": 65034, "BSTAR": 0.00054652989, "MEAN_MOTION_DOT": 1.881e-05, "MEAN_MOTION_DDOT": 0}, "tle": {"line1": "1 32109U 99025CRB 25356.91301592  .00001881  00000+0  54653-3 0  9994", "line2": "2 32109  98.3590 236.1509 0205156 281.9409  75.8843 14.33976388650344"}}, "geometry": {"type": "Point", "coordinates": [-99.45773955539642, -67.34333801259866]}}, {"type": "Feature", "properties": {"norad_id": 32110, "name": "FENGYUN 1C DEB", "group": "fengyun-1c-debris", "lat": 59.50868669364021, "lon": 154.72046530837818, "alt_km": 791.0949131698007, "timestamp": "2025-12-26T19:22:39.192255+00:00", "meta": {"OBJECT_NAME": "FENGYUN 1C DEB", "OBJECT_ID": "1999-025CRC", "EPOCH": "2025-12-22T23:22:37.139808", "MEAN_MOTION": 14.28961563, "ECCENTRICITY": 0.00335496, "INCLINATION": 99.5437, "RA_OF_ASC_NODE": 167.13, "ARG_OF_PERICENTER": 337.3668, "MEAN_ANOMALY": 174.1359, "EPHEMERIS_TYPE": 0, "CLASSIFICATION_TYPE": "U", "NORAD_CAT_ID": 32110, "ELEMENT_SET_NO": 999, "REV_AT_EPOCH": 64534, "BSTAR": 0.0014667226, "MEAN_MOTION_DOT": 3.68e-05, "MEAN_MOTION_DDOT": 0}, "tle": {"line1": "1 32110U 99025CRC 25356.97404097  .00003680  00000+0  14667-2 0  9995", "line2": "2 32110  99.5437 167.1300 0033549 337.3668 174.1359 14.28961563645341"}}, "geometry": {"type": "Point", "coordinates": [154.72046530837818, 59.50868669364021]}}, {"type": "Feature", "properties": {"norad_id": 32111, "name": "FENGYUN 1C DEB", "group": "fengyun-1c-debris", "lat": -12.251492898387625, "lon": 178.3055568860725, "alt_km": 715.3151442740591, "timestamp": "2025-12-26T19:22:39.192265+00:00", "meta": {"OBJECT_NAME": "FENGYUN 1C DEB", "OBJECT_ID": "1999-025CRD", "EPOCH": "2025-12-24T11:50:11.297184", "MEAN_MOTION": 14.3155842, "ECCENTRICITY": 0.01203266, "INCLINATION": 98.4437, "RA_OF_ASC_NODE": 357.903, "ARG_OF_PERICENTER": 170.0242, "MEAN_ANOMALY": 341.8723, "EPHEMERIS_TYPE": 0, "CLASSIFICATION_TYPE": "U", "NORAD_CAT_ID": 32111, "ELEMENT_SET_NO": 999, "REV_AT_EPOCH": 96199, "BSTAR": 0.00017348243, "MEAN_MOTION_DOT": 4.56e-06, "MEAN_MOTION_DDOT": 0}, "tle": {"line1": "1 32111U 99025CRD 25358.49318631  .00000456  00000+0  17348-3 0  9991", "line2": "2 32111  98.4437 357.9030 0120326 170.0242 341.8723 14.31558420961997"}}, "geometry": {"type": "Point", "coordinates": [178.3055568860725, -12.251492898387625]}}, {"type": "Feature", "properties": {"norad_id": 32113, "name": "FENGYUN 1C DEB", "group": "fengyun-1c-debris", "lat": 3.802580720534042, "lon": 34.67858427534488, "alt_km": 1088.3458341514588, "timestamp": "2025-12-26T19:22:39.192275+00:00", "meta": {"OBJECT_NAME": "FENGYUN 1C DEB", "OBJECT_ID": "1999-025CRF", "EPOCH": "2025-12-22T20:39:08.544384", "MEAN_MOTION": 13.9458115, "ECCENTRICITY": 0.0238461, "INCLINATION": 99.0255, "RA_OF_ASC_NODE": 31.4218, "ARG_OF_PERICENTER": 198.943, "MEAN_ANOMALY": 160.2746, "EPHEMERIS_TYPE": 0, "CLASSIFICATION_TYPE": "U", "NORAD_CAT_ID": 32113, "ELEMENT_SET_NO": 999, "REV_AT_EPOCH": 63027, "BSTAR": 0.0006327, "MEAN_MOTION_DOT": 1.027e-05, "MEAN_MOTION_DDOT": 0}, "tle": {"line1": "1 32113U 99025CRF 25356.86051556  .00001027  00000+0  63270-3 0  9992", "line2": "2 32113  99.0255  31.4218 0238461 198.9430 160.2746 13.94581150630270"}}, "geometry": {"type": "Point", "coordinates": [34.67858427534488, 3.802580720534042]}}, {"type": "Feature", "properties": {"norad_id": 32114, "name": "FENGYUN 1C DEB", "group": "fengyun-1c-debris", "lat": -9.864021990914095, "lon": 122.8143368070522, "alt_km": 619.9922972131653, "timestamp": "2025-12-26T19:22:39.192286+00:00", "meta": {"OBJECT_NAME": "FENGYUN 1C DEB", "OBJECT_ID": "1999-025CRG", "EPOCH": "2025-12-06T13:19:21.641376", "MEAN_MOTION": 14.76489439, "ECCENTRICITY": 0.00447682, "INCLINATION": 99.9287, "RA_OF_ASC_NODE": 96.1919, "ARG_OF_PERICENTER": 3.5911, "MEAN_ANOMALY": 356.5605, "EPHEMERIS_TYPE": 0, "CLASSIFICATION_TYPE": "U", "NORAD_CAT_ID": 32114, "ELEMENT_SET_NO": 999, "REV_AT_EPOCH": 65638, "BSTAR": 0.0040574802, "MEAN_MOTION_DOT": 0.0002877, "MEAN_MOTION_DDOT": 0}, "tle": {"line1": "1 32114U 99025CRG 25340.55511159  .00028770  00000+0  40575-2 0  9998", "line2": "2 32114  99.9287  96.1919 0044768   3.5911 356.5605 14.76489439656383"}}, "geometry": {"type": "Point", "coordinates": [122.8143368070522, -9.864021990914095]}}, {"type": "Feature", "properties": {"norad_id": 32117, "name": "FENGYUN 1C DEB", "group": "fengyun-1c-debris", "lat": -6.799006463240741, "lon": 46.889692530641085, "alt_km": 805.4217814049207, "timestamp": "2025-12-26T19:22:39.192296+00:00", "meta": {"OBJECT_NAME": "FENGYUN 1C DEB", "OBJECT_ID": "1999-025CRK", "EPOCH": "2025-12-24T23:33:52.526880", "MEAN_MOTION": 14.23993924, "ECCENTRICITY": 0.00267877, "INCLINATION": 98.6105, "RA_OF_ASC_NODE": 44.0668, "ARG_OF_PERICENTER": 56.7289, "MEAN_ANOMALY": 303.6451, "EPHEMERIS_TYPE": 0, "CLASSIFICATION_TYPE": "U", "NORAD_CAT_ID": 32117, "ELEMENT_SET_NO": 999, "REV_AT_EPOCH": 94971, "BSTAR": 0.00099983564, "MEAN_MOTION_DOT": 2.261e-05, "MEAN_MOTION_DDOT": 0}, "tle": {"line1": "1 32117U 99025CRK 25358.98185795  .00002261  00000+0  99984-3 0  9996", "line2": "2 32117  98.6105  44.0668 0026787  56.7289 303.6451 14.23993924949718"}}, "geometry": {"type": "Point", "coordinates": [46.889692530641085, -6.799006463240741]}}, {"type": "Feature", "properties": {"norad_id": 32119, "name": "FENGYUN 1C DEB", "group": "fengyun-1c-debris", "lat": 29.540208940666663, "lon": -141.15672573462513, "alt_km": 822.0833035065962, "timestamp": "2025-12-26T19:22:39.192305+00:00", "meta": {"OBJECT_NAME": "FENGYUN 1C DEB", "OBJECT_ID": "1999-025CRM", "EPOCH": "2025-12-21T09:08:50.463168", "MEAN_MOTION": 14.02839478, "ECCENTRICITY": 0.00860891, "INCLINATION": 99.8866, "RA_OF_ASC_NODE": 218.6288, "ARG_OF_PERICENTER": 29.2524, "MEAN_ANOMALY": 331.342, "EPHEMERIS_TYPE": 0, "CLASSIFICATION_TYPE": "U", "NORAD_CAT_ID": 32119, "ELEMENT_SET_NO": 999, "REV_AT_EPOCH": 93849, "BSTAR": 0.00056371909, "MEAN_MOTION_DOT": 8.5e-06, "MEAN_MOTION_DDOT": 0}, "tle": {"line1": "1 32119U 99025CRM 25355.38113962  .00000850  00000+0  56372-3 0  9992", "line2": "2 32119  99.8866 218.6288 0086089  29.2524 331.3420 14.02839478938499"}}, "geometry": {"type": "Point", "coordinates": [-141.15672573462513, 29.540208940666663]}}, {"type": "Feature", "properties": {"norad_id": 32123, "name": "FENGYUN 1C DEB", "group": "fengyun-1c-debris", "lat": 28.13770575115535, "lon": 164.92925003811274, "alt_km": 770.869254980139, "timestamp": "2025-12-26T19:22:39.192315+00:00", "meta": {"OBJECT_NAME": "FENGYUN 1C DEB", "OBJECT_ID": "1999-025CRR", "EPOCH": "2025-12-25T10:31:59.270016", "MEAN_MOTION": 14.61506099, "ECCENTRICITY": 0.0159504, "INCLINATION": 98.9409, "RA_OF_ASC_NODE": 168.28, "ARG_OF_PERICENTER": 254.1526, "MEAN_ANOMALY": 137.0709, "EPHEMERIS_TYPE": 0, "CLASSIFICATION_TYPE": "U", "NORAD_CAT_ID": 32123, "ELEMENT_SET_NO": 999, "REV_AT_EPOCH": 71560, "BSTAR": 0.00034383, "MEAN_MOTION_DOT": 1.977e-05, "MEAN_MOTION_DDOT": 0}, "tle": {"line1": "1 32123U 99025CRR 25359.43888044  .00001977  00000+0  34383-3 0  9996", "line2": "2 32123  98.9409 168.2800 0159504 254.1526 137.0709 14.61506099715603"}}, "geometry": {"type": "Point", "coordinates": [164.92925003811274, 28.13770575115535]}}, {"type": "Feature", "properties": {"norad_id": 32125, "name": "FENGYUN 1C DEB", "group": "fengyun-1c-debris", "lat": -65.0320619891472, "lon": 142.6539793916565, "alt_km": 564.7404807418425, "timestamp": "2025-12-26T19:22:39.192328+00:00", "meta": {"OBJECT_NAME": "FENGYUN 1C DEB", "OBJECT_ID": "1999-025CRT", "EPOCH": "2025-12-23T16:44:51.530496", "MEAN_MOTION": 14.70223503, "ECCENTRICITY": 0.01727232, "INCLINATION": 99.0646, "RA_OF_ASC_NODE": 339.2508, "ARG_OF_PERICENTER": 289.2149, "MEAN_ANOMALY": 69.0435, "EPHEMERIS_TYPE": 0, "CLASSIFICATION_TYPE": "U", "NORAD_CAT_ID": 32125, "ELEMENT_SET_NO": 999, "REV_AT_EPOCH": 70684, "BSTAR": 0.0023171985, "MEAN_MOTION_DOT": 0.00017568, "MEAN_MOTION_DDOT": 0}, "tle": {"line1": "1 32125U 99025CRT 25357.69781864  .00017568  00000+0  23172-2 0  9992", "line2": "2 32125  99.0646 339.2508 0172723 289.2149  69.0435 14.70223503706845"}}, "geometry": {"type": "Point", "coordinates": [142.6539793916565, -65.0320619891472]}}]}